ONEWEB-0281             
1 48999U 21060AJ  25245.64585205  .00000131  00000+0  30869-3 0  9994
2 48999  87.8997 286.0850 0001984  90.8916 269.2442 13.16593043201796
ONEWEB-0282             
1 49000U 21060AK  25245.67593389 -.00000044  00000+0 -14953-3 0  9994
2 49000  87.9000 286.0888 0001727  92.3319 267.8010 13.16593810201771
ONEWEB-0283             
1 49001U 21060AL  25245.66485197 -.00000038  00000+0 -13221-3 0  9991
2 49001  87.8993 286.0939 0001770  88.1555 271.9778 13.16594701201780
ONEWEB-0284             
1 49002U 21060AM  25245.81051715  .00000054  00000+0  10872-3 0  9999
2 49002  87.9009 286.0443 0001786 102.7122 257.4208 13.16594302201784
ONEWEB-0285             
1 49075U 21075A   25245.87490808 -.00000212  00000+0 -62585-3 0  9997
2 49075  87.8881  47.7487 0001657  93.9609 266.1709 13.12444428197527
ONEWEB-0286             
1 49076U 21075B   25245.93300193 -.00000263  00000+0 -76596-3 0  9995
2 49076  87.8892  47.7707 0001901  94.6100 265.5245 13.12440632196880
ONEWEB-0287             
1 49077U 21075C   25245.90009096  .00002727  00000+0  69847-2 0  9996
2 49077  87.9041  63.0160 0002130  97.5757 262.5616 13.17673019195797
ONEWEB-0288             
1 49078U 21075D   25245.90883637  .00000460  00000+0  12443-2 0  9990
2 49078  87.8877  47.7366 0001662  97.9031 262.2286 13.12442821197500
ONEWEB-0289             
1 49079U 21075E   25245.48316858  .00000110  00000+0  25007-3 0  9993
2 49079  87.9023  63.1264 0001398 100.5081 259.6208 13.17647927196317
ONEWEB-0290             
1 49080U 21075F   25245.91192666  .00000076  00000+0  16316-3 0  9996
2 49080  87.9033  62.9941 0001107  97.2501 262.8757 13.17649286195781
ONEWEB-0291             
1 49081U 21075G   25245.89676624  .00000277  00000+0  68109-3 0  9995
2 49081  87.9039  63.0013 0001843 102.9515 257.1822 13.17649238195772
ONEWEB-0293             
1 49082U 21075H   25245.92206620  .00000136  00000+0  31598-3 0  9991
2 49082  87.9025  63.0267 0001591  93.7912 266.3401 13.17650926195802
ONEWEB-0294             
1 49083U 21075J   25245.91532504  .00000277  00000+0  73574-3 0  9990
2 49083  87.8880  47.7354 0001374 108.5712 251.5566 13.12441869196896
ONEWEB-0295             
1 49084U 21075K   25245.92120316 -.00000044  00000+0 -14600-3 0  9995
2 49084  87.9035  63.0293 0001895 100.7491 259.3854 13.17648908195768
ONEWEB-0296             
1 49085U 21075L   25245.89585867  .00000440  00000+0  11885-2 0  9997
2 49085  87.8878  47.7453 0001781 111.7916 248.3403 13.12443632196893
ONEWEB-0297             
1 49086U 21075M   25245.92667263 -.00000063  00000+0 -21129-3 0  9999
2 49086  87.8873  47.7772 0001789  94.0860 266.0473 13.12442178197509
ONEWEB-0298             
1 49087U 21075N   25245.92557447  .00001061  00000+0  27001-2 0  9993
2 49087  87.9024  63.0239 0001838  89.2432 270.8910 13.17643727195790
