[{"OBJECT_NAME":"ONEWEB-0281","OBJECT_ID":"2021-060AJ","EPOCH":"2025-09-02T15:30:01.617120","MEAN_MOTION":13.16593043,"ECCENTRICITY":0.00019841,"INCLINATION":87.8997,"RA_OF_ASC_NODE":286.085,"ARG_OF_PERICENTER":90.8916,"MEAN_ANOMALY":269.2442,"EPHEMERIS_TYPE":0,"CLASSIFICATION_TYPE":"U","NORAD_CAT_ID":48999,"ELEMENT_SET_NO":999,"REV_AT_EPOCH":20179,"BSTAR":0.00030869261,"MEAN_MOTION_DOT":1.31e-6,"MEAN_MOTION_DDOT":0},{"OBJECT_NAME":"ONEWEB-0282","OBJECT_ID":"2021-060AK","EPOCH":"2025-09-02T16:13:20.688096","MEAN_MOTION":13.1659381,"ECCENTRICITY":0.00017273,"INCLINATION":87.9,"RA_OF_ASC_NODE":286.0888,"ARG_OF_PERICENTER":92.3319,"MEAN_ANOMALY":267.801,"EPHEMERIS_TYPE":0,"CLASSIFICATION_TYPE":"U","NORAD_CAT_ID":49000,"ELEMENT_SET_NO":999,"REV_AT_EPOCH":20177,"BSTAR":-0.0001495337,"MEAN_MOTION_DOT":-4.4e-7,"MEAN_MOTION_DDOT":0},{"OBJECT_NAME":"ONEWEB-0283","OBJECT_ID":"2021-060AL","EPOCH":"2025-09-02T15:57:23.210208","MEAN_MOTION":13.16594701,"ECCENTRICITY":0.00017704,"INCLINATION":87.8993,"RA_OF_ASC_NODE":286.0939,"ARG_OF_PERICENTER":88.1555,"MEAN_ANOMALY":271.9778,"EPHEMERIS_TYPE":0,"CLASSIFICATION_TYPE":"U","NORAD_CAT_ID":49001,"ELEMENT_SET_NO":999,"REV_AT_EPOCH":20178,"BSTAR":-0.00013221079,"MEAN_MOTION_DOT":-3.8e-7,"MEAN_MOTION_DDOT":0},{"OBJECT_NAME":"ONEWEB-0284","OBJECT_ID":"2021-060AM","EPOCH":"2025-09-02T19:27:08.681760","MEAN_MOTION":13.16594302,"ECCENTRICITY":0.00017868,"INCLINATION":87.9009,"RA_OF_ASC_NODE":286.0443,"ARG_OF_PERICENTER":102.7122,"MEAN_ANOMALY":257.4208,"EPHEMERIS_TYPE":0,"CLASSIFICATION_TYPE":"U","NORAD_CAT_ID":49002,"ELEMENT_SET_NO":999,"REV_AT_EPOCH":20178,"BSTAR":0.00010872453,"MEAN_MOTION_DOT":5.4e-7,"MEAN_MOTION_DDOT":0},{"OBJECT_NAME":"ONEWEB-0285","OBJECT_ID":"2021-075A","EPOCH":"2025-09-02T20:59:52.058112","MEAN_MOTION":13.12444428,"ECCENTRICITY":0.00016575,"INCLINATION":87.8881,"RA_OF_ASC_NODE":47.7487,"ARG_OF_PERICENTER":93.9609,"MEAN_ANOMALY":266.1709,"EPHEMERIS_TYPE":0,"CLASSIFICATION_TYPE":"U","NORAD_CAT_ID":49075,"ELEMENT_SET_NO":999,"REV_AT_EPOCH":19752,"BSTAR":-0.00062585466,"MEAN_MOTION_DOT":-2.12e-6,"MEAN_MOTION_DDOT":0},{"OBJECT_NAME":"ONEWEB-0286","OBJECT_ID":"2021-075B","EPOCH":"2025-09-02T22:23:31.366752","MEAN_MOTION":13.12440632,"ECCENTRICITY":0.00019016,"INCLINATION":87.8892,"RA_OF_ASC_NODE":47.7707,"ARG_OF_PERICENTER":94.61,"MEAN_ANOMALY":265.5245,"EPHEMERIS_TYPE":0,"CLASSIFICATION_TYPE":"U","NORAD_CAT_ID":49076,"ELEMENT_SET_NO":999,"REV_AT_EPOCH":19688,"BSTAR":-0.00076595609,"MEAN_MOTION_DOT":-2.63e-6,"MEAN_MOTION_DDOT":0},{"OBJECT_NAME":"ONEWEB-0287","OBJECT_ID":"2021-075C","EPOCH":"2025-09-02T21:36:07.858944","MEAN_MOTION":13.17673019,"ECCENTRICITY":0.00021304,"INCLINATION":87.9041,"RA_OF_ASC_NODE":63.016,"ARG_OF_PERICENTER":97.5757,"MEAN_ANOMALY":262.5616,"EPHEMERIS_TYPE":0,"CLASSIFICATION_TYPE":"U","NORAD_CAT_ID":49077,"ELEMENT_SET_NO":999,"REV_AT_EPOCH":19579,"BSTAR":0.006984722,"MEAN_MOTION_DOT":2.727e-5,"MEAN_MOTION_DDOT":0},{"OBJECT_NAME":"ONEWEB-0288","OBJECT_ID":"2021-075D","EPOCH":"2025-09-02T21:48:43.462368","MEAN_MOTION":13.12442821,"ECCENTRICITY":0.00016628,"INCLINATION":87.8877,"RA_OF_ASC_NODE":47.7366,"ARG_OF_PERICENTER":97.9031,"MEAN_ANOMALY":262.2286,"EPHEMERIS_TYPE":0,"CLASSIFICATION_TYPE":"U","NORAD_CAT_ID":49078,"ELEMENT_SET_NO":999,"REV_AT_EPOCH":19750,"BSTAR":0.0012443311,"MEAN_MOTION_DOT":4.6e-6,"MEAN_MOTION_DDOT":0},{"OBJECT_NAME":"ONEWEB-0289","OBJECT_ID":"2021-075E","EPOCH":"2025-09-02T11:35:45.765312","MEAN_MOTION":13.17647927,"ECCENTRICITY":0.0001398,"INCLINATION":87.9023,"RA_OF_ASC_NODE":63.1264,"ARG_OF_PERICENTER":100.5081,"MEAN_ANOMALY":259.6208,"EPHEMERIS_TYPE":0,"CLASSIFICATION_TYPE":"U","NORAD_CAT_ID":49079,"ELEMENT_SET_NO":999,"REV_AT_EPOCH":19631,"BSTAR":0.0002500722,"MEAN_MOTION_DOT":1.1e-6,"MEAN_MOTION_DDOT":0},{"OBJECT_NAME":"ONEWEB-0290","OBJECT_ID":"2021-075F","EPOCH":"2025-09-02T21:53:10.463424","MEAN_MOTION":13.17649286,"ECCENTRICITY":0.00011078,"INCLINATION":87.9033,"RA_OF_ASC_NODE":62.9941,"ARG_OF_PERICENTER":97.2501,"MEAN_ANOMALY":262.8757,"EPHEMERIS_TYPE":0,"CLASSIFICATION_TYPE":"U","NORAD_CAT_ID":49080,"ELEMENT_SET_NO":999,"REV_AT_EPOCH":19578,"BSTAR":0.00016315708,"MEAN_MOTION_DOT":7.6e-7,"MEAN_MOTION_DDOT":0},{"OBJECT_NAME":"ONEWEB-0291","OBJECT_ID":"2021-075G","EPOCH":"2025-09-02T21:31:20.603136","MEAN_MOTION":13.17649238,"ECCENTRICITY":0.00018437,"INCLINATION":87.9039,"RA_OF_ASC_NODE":63.0013,"ARG_OF_PERICENTER":102.9515,"MEAN_ANOMALY":257.1822,"EPHEMERIS_TYPE":0,"CLASSIFICATION_TYPE":"U","NORAD_CAT_ID":49081,"ELEMENT_SET_NO":999,"REV_AT_EPOCH":19577,"BSTAR":0.0006810896,"MEAN_MOTION_DOT":2.77e-6,"MEAN_MOTION_DDOT":0},{"OBJECT_NAME":"ONEWEB-0293","OBJECT_ID":"2021-075H","EPOCH":"2025-09-02T22:07:46.519680","MEAN_MOTION":13.17650926,"ECCENTRICITY":0.00015915,"INCLINATION":87.9025,"RA_OF_ASC_NODE":63.0267,"ARG_OF_PERICENTER":93.7912,"MEAN_ANOMALY":266.3401,"EPHEMERIS_TYPE":0,"CLASSIFICATION_TYPE":"U","NORAD_CAT_ID":49082,"ELEMENT_SET_NO":999,"REV_AT_EPOCH":19580,"BSTAR":0.00031597588,"MEAN_MOTION_DOT":1.36e-6,"MEAN_MOTION_DDOT":0},{"OBJECT_NAME":"ONEWEB-0294","OBJECT_ID":"2021-075J","EPOCH":"2025-09-02T21:58:04.083456","MEAN_MOTION":13.12441869,"ECCENTRICITY":0.00013745,"INCLINATION":87.888,"RA_OF_ASC_NODE":47.7354,"ARG_OF_PERICENTER":108.5712,"MEAN_ANOMALY":251.5566,"EPHEMERIS_TYPE":0,"CLASSIFICATION_TYPE":"U","NORAD_CAT_ID":49083,"ELEMENT_SET_NO":999,"REV_AT_EPOCH":19689,"BSTAR":0.00073574391,"MEAN_MOTION_DOT":2.77e-6,"MEAN_MOTION_DDOT":0},{"OBJECT_NAME":"ONEWEB-0295","OBJECT_ID":"2021-075K","EPOCH":"2025-09-02T22:06:31.953024","MEAN_MOTION":13.17648908,"ECCENTRICITY":0.00018951,"INCLINATION":87.9035,"RA_OF_ASC_NODE":63.0293,"ARG_OF_PERICENTER":100.7491,"MEAN_ANOMALY":259.3854,"EPHEMERIS_TYPE":0,"CLASSIFICATION_TYPE":"U","NORAD_CAT_ID":49084,"ELEMENT_SET_NO":999,"REV_AT_EPOCH":19576,"BSTAR":-0.00014599962,"MEAN_MOTION_DOT":-4.4e-7,"MEAN_MOTION_DDOT":0},{"OBJECT_NAME":"ONEWEB-0296","OBJECT_ID":"2021-075L","EPOCH":"2025-09-02T21:30:02.189088","MEAN_MOTION":13.12443632,"ECCENTRICITY":0.00017813,"INCLINATION":87.8878,"RA_OF_ASC_NODE":47.7453,"ARG_OF_PERICENTER":111.7916,"MEAN_ANOMALY":248.3403,"EPHEMERIS_TYPE":0,"CLASSIFICATION_TYPE":"U","NORAD_CAT_ID":49085,"ELEMENT_SET_NO":999,"REV_AT_EPOCH":19689,"BSTAR":0.0011885105,"MEAN_MOTION_DOT":4.4e-6,"MEAN_MOTION_DDOT":0},{"OBJECT_NAME":"ONEWEB-0297","OBJECT_ID":"2021-075M","EPOCH":"2025-09-02T22:14:24.515232","MEAN_MOTION":13.12442178,"ECCENTRICITY":0.00017897,"INCLINATION":87.8873,"RA_OF_ASC_NODE":47.7772,"ARG_OF_PERICENTER":94.086,"MEAN_ANOMALY":266.0473,"EPHEMERIS_TYPE":0,"CLASSIFICATION_TYPE":"U","NORAD_CAT_ID":49086,"ELEMENT_SET_NO":999,"REV_AT_EPOCH":19750,"BSTAR":-0.00021128645,"MEAN_MOTION_DOT":-6.3e-7,"MEAN_MOTION_DDOT":0},{"OBJECT_NAME":"ONEWEB-0298","OBJECT_ID":"2021-075N","EPOCH":"2025-09-02T22:12:49.634208","MEAN_MOTION":13.17643727,"ECCENTRICITY":0.00018388,"INCLINATION":87.9024,"RA_OF_ASC_NODE":63.0239,"ARG_OF_PERICENTER":89.2432,"MEAN_ANOMALY":270.891,"EPHEMERIS_TYPE":0,"CLASSIFICATION_TYPE":"U","NORAD_CAT_ID":49087,"ELEMENT_SET_NO":999,"REV_AT_EPOCH":19579,"BSTAR":0.002700138,"MEAN_MOTION_DOT":1.061e-5,"MEAN_MOTION_DDOT":0}]
